[{"OBJECT_NAME":"TEVEL2-3","OBJECT_ID":"2025-052J","EPOCH":"2026-03-09T15:29:22.754400","MEAN_MOTION":15.30377031,"ECCENTRICITY":0.0004761,"INCLINATION":97.3994,"RA_OF_ASC_NODE":324.7775,"ARG_OF_PERICENTER":105.7353,"MEAN_ANOMALY":254.4413,"EPHEMERIS_TYPE":0,"CLASSIFICATION_TYPE":"U","NORAD_CAT_ID":63218,"ELEMENT_SET_NO":999,"REV_AT_EPOCH":5485,"BSTAR":0.00069446,"MEAN_MOTION_DOT":0.00020365,"MEAN_MOTION_DDOT":0},{"OBJECT_NAME":"STARLINK-34688","OBJECT_ID":"2025-223X","EPOCH":"2026-03-09T21:47:22.710336","MEAN_MOTION":15.30208727,"ECCENTRICITY":0.00010296,"INCLINATION":53.1574,"RA_OF_ASC_NODE":293.5451,"ARG_OF_PERICENTER":86.9953,"MEAN_ANOMALY":273.1165,"EPHEMERIS_TYPE":0,"CLASSIFICATION_TYPE":"U","NORAD_CAT_ID":65875,"ELEMENT_SET_NO":999,"REV_AT_EPOCH":2423,"BSTAR":0.00086801624,"MEAN_MOTION_DOT":0.00025444,"MEAN_MOTION_DDOT":0}]
